{
  "norad_id": 46563,
  "name": "STARLINK-1730",
  "history": [
    {
      "epoch": "2026-04-11T08:23:59.197344Z",
      "apogee_km": 418.77213479273996,
      "perigee_km": 416.2196950698926,
      "latitude_deg": 6.867193229113858e-07,
      "longitude_deg": 0.8415005326771109,
      "height_km": 419.6296980081574,
      "semi_major_axis_km": 6795.632914931316,
      "eccentricity": 0.0001878,
      "inclination_deg": 53.0307,
      "raan_deg": 326.4089,
      "arg_perigee_deg": 166.5196,
      "mean_anomaly_deg": 193.5862,
      "mean_motion_rev_day": 15.49736619
    },
    {
      "epoch": "2026-04-12T21:32:33.182592Z",
      "apogee_km": 418.1484226477851,
      "perigee_km": 415.5638790529283,
      "latitude_deg": 6.157120513612579e-05,
      "longitude_deg": 154.74523992657407,
      "height_km": 419.0298810912844,
      "semi_major_axis_km": 6794.993150850357,
      "eccentricity": 0.00019018,
      "inclination_deg": 53.0293,
      "raan_deg": 318.9796,
      "arg_perigee_deg": 187.8238,
      "mean_anomaly_deg": 172.2741,
      "mean_motion_rev_day": 15.49955491
    },
    {
      "epoch": "2026-04-14T19:57:53.195616Z",
      "apogee_km": 417.27230677460557,
      "perigee_km": 415.0138880702225,
      "latitude_deg": 2.779949634388555e-05,
      "longitude_deg": 167.21713576760683,
      "height_km": 418.0842088499275,
      "semi_major_axis_km": 6794.280097422414,
      "eccentricity": 0.0001662,
      "inclination_deg": 53.0292,
      "raan_deg": 309.6914,
      "arg_perigee_deg": 201.9817,
      "mean_anomaly_deg": 158.112,
      "mean_motion_rev_day": 15.50199497
    },
    {
      "epoch": "2026-04-15T17:37:34.508352Z",
      "apogee_km": 416.9603975146247,
      "perigee_km": 414.77001120393925,
      "latitude_deg": -3.6328891410794736e-05,
      "longitude_deg": -162.92865211235912,
      "height_km": 417.70733396680976,
      "semi_major_axis_km": 6794.002204359282,
      "eccentricity": 0.0001612,
      "inclination_deg": 53.0279,
      "raan_deg": 305.3574,
      "arg_perigee_deg": 210.0455,
      "mean_anomaly_deg": 150.046,
      "mean_motion_rev_day": 15.50294609
    },
    {
      "epoch": "2026-04-16T19:55:35.798016Z",
      "apogee_km": 415.91300572359796,
      "perigee_km": 414.67795969824147,
      "latitude_deg": -8.227444694137656e-06,
      "longitude_deg": 156.21858009330313,
      "height_km": 416.78414386791735,
      "semi_major_axis_km": 6793.432482710919,
      "eccentricity": 9.09e-05,
      "inclination_deg": 53.0286,
      "raan_deg": 300.0901,
      "arg_perigee_deg": 195.5081,
      "mean_anomaly_deg": 164.5899,
      "mean_motion_rev_day": 15.50489633
    },
    {
      "epoch": "2026-04-17T22:13:29.507808Z",
      "apogee_km": 416.1670471092366,
      "perigee_km": 413.7529163038789,
      "latitude_deg": -3.0428187491239786e-05,
      "longitude_deg": 115.39974320517273,
      "height_km": 416.7216739916404,
      "semi_major_axis_km": 6793.096981706558,
      "eccentricity": 0.00017769,
      "inclination_deg": 53.0288,
      "raan_deg": 294.8251,
      "arg_perigee_deg": 224.0934,
      "mean_anomaly_deg": 135.9932,
      "mean_motion_rev_day": 15.50604499
    },
    {
      "epoch": "2026-04-18T19:52:50.363616Z",
      "apogee_km": 415.8811300500183,
      "perigee_km": 413.3705249089817,
      "latitude_deg": -6.080161331733769e-05,
      "longitude_deg": 145.3369495190052,
      "height_km": 416.3475900842704,
      "semi_major_axis_km": 6792.7628274795,
      "eccentricity": 0.0001848,
      "inclination_deg": 53.0284,
      "raan_deg": 290.4886,
      "arg_perigee_deg": 228.8014,
      "mean_anomaly_deg": 131.2834,
      "mean_motion_rev_day": 15.50718918
    },
    {
      "epoch": "2026-04-19T20:37:42.744864Z",
      "apogee_km": 415.2635509977408,
      "perigee_km": 413.44995516566814,
      "latitude_deg": -7.336884008926037e-05,
      "longitude_deg": 128.14562436173432,
      "height_km": 415.64136049538496,
      "semi_major_axis_km": 6792.493753081704,
      "eccentricity": 0.0001335,
      "inclination_deg": 53.0287,
      "raan_deg": 285.5319,
      "arg_perigee_deg": 244.542,
      "mean_anomaly_deg": 115.5449,
      "mean_motion_rev_day": 15.50811063
    },
    {
      "epoch": "2026-04-20T04:21:42.739488Z",
      "apogee_km": 414.52414697561744,
      "perigee_km": 413.9002017804587,
      "latitude_deg": -5.841273386765111e-05,
      "longitude_deg": 10.279060725577136,
      "height_km": 414.96822282514904,
      "semi_major_axis_km": 6792.349174378038,
      "eccentricity": 4.593e-05,
      "inclination_deg": 53.0287,
      "raan_deg": 283.9829,
      "arg_perigee_deg": 296.2415,
      "mean_anomaly_deg": 63.8545,
      "mean_motion_rev_day": 15.50860578
    },
    {
      "epoch": "2026-04-21T20:34:14.649600Z",
      "apogee_km": 414.65257683784785,
      "perigee_km": 412.42354908218476,
      "latitude_deg": 3.50963310573547e-05,
      "longitude_deg": 117.4427485063149,
      "height_km": 414.5165104331293,
      "semi_major_axis_km": 6791.6750629600165,
      "eccentricity": 0.0001641,
      "inclination_deg": 53.0285,
      "raan_deg": 275.9308,
      "arg_perigee_deg": 265.7232,
      "mean_anomaly_deg": 94.3589,
      "mean_motion_rev_day": 15.51091481
    },
    {
      "epoch": "2026-04-22T19:45:57.393216Z",
      "apogee_km": 414.09547191460115,
      "perigee_km": 412.2428036002211,
      "latitude_deg": 6.640481096403113e-05,
      "longitude_deg": 123.91207788385377,
      "height_km": 414.12582113529027,
      "semi_major_axis_km": 6791.306137757411,
      "eccentricity": 0.0001364,
      "inclination_deg": 53.0282,
      "raan_deg": 271.2808,
      "arg_perigee_deg": 266.1864,
      "mean_anomaly_deg": 93.8989,
      "mean_motion_rev_day": 15.51217873
    },
    {
      "epoch": "2026-04-23T03:29:49.982496Z",
      "apogee_km": 413.9988272718774,
      "perigee_km": 412.0619863274578,
      "latitude_deg": 3.870047853735967e-05,
      "longitude_deg": 6.077722284932793,
      "height_km": 413.64745647321246,
      "semi_major_axis_km": 6791.167406799667,
      "eccentricity": 0.0001426,
      "inclination_deg": 53.0268,
      "raan_deg": 269.7331,
      "arg_perigee_deg": 286.6764,
      "mean_anomaly_deg": 73.4088,
      "mean_motion_rev_day": 15.51265406
    },
    {
      "epoch": "2026-04-24T19:41:42.858816Z",
      "apogee_km": 413.70617037662396,
      "perigee_km": 410.61522686421085,
      "latitude_deg": -7.324236797402176e-05,
      "longitude_deg": 113.39674415601839,
      "height_km": 412.42718175190436,
      "semi_major_axis_km": 6790.297698620417,
      "eccentricity": 0.0002276,
      "inclination_deg": 53.0275,
      "raan_deg": 261.6734,
      "arg_perigee_deg": 294.031,
      "mean_anomaly_deg": 66.0459,
      "mean_motion_rev_day": 15.51563447
    }
  ]
}